OBJECT_NAME,OBJECT_ID,EPOCH,MEAN_MOTION,ECCENTRICITY,INCLINATION,RA_OF_ASC_NODE,ARG_OF_PERICENTER,MEAN_ANOMALY,EPHEMERIS_TYPE,CLASSIFICATION_TYPE,NORAD_CAT_ID,ELEMENT_SET_NO,REV_AT_EPOCH,BSTAR,MEAN_MOTION_DOT,MEAN_MOTION_DDOT
STARLINK-30425,2023-141L,2026-06-14T19:30:36.694080,15.30193118,.00011174,53.1594,193.0707,76.1584,283.9541,0,U,57850,999,15519,.16316783E-4,.124E-5,0
STARLINK-30405,2023-141M,2026-06-14T08:34:55.940160,15.31703722,.00011594,53.1601,194.6822,84.3613,275.7520,0,U,57851,999,15513,.31440316E-4,.611E-5,0
STARLINK-30431,2023-141N,2026-06-14T08:41:13.501248,15.30206905,.00011904,53.1593,194.7603,59.4917,300.6201,0,U,57852,999,15512,.62580148E-4,.1495E-4,0
STARLINK-30404,2023-141P,2026-06-14T08:35:13.867296,15.30151120,.00009984,53.1596,194.7336,54.8252,305.2842,0,U,57853,999,15513,-.16297269E-3,-.5175E-4,0
STARLINK-30412,2023-141Q,2026-06-14T08:50:22.095456,15.30184822,.00012048,53.1593,194.7994,94.1151,265.9988,0,U,57854,999,15513,.97807831E-4,.2537E-4,0
STARLINK-30392,2023-141R,2026-06-14T08:45:48.202272,15.30197154,.00013039,53.1600,194.7791,91.5496,268.5655,0,U,57855,999,15513,.10966817E-4,-.34E-6,0
STARLINK-30291,2023-141S,2026-06-14T19:12:30.186432,15.31698339,.00013169,53.1591,192.5178,89.1210,270.9942,0,U,57856,999,15520,-.15215419E-4,-.837E-5,0
STARLINK-30424,2023-141T,2026-06-15T04:09:14.753952,15.30182768,.0001278,53.1591,165.3218,98.4631,261.6514,0,U,57857,999,15561,-.53073E-4,-.193E-4,0
STARLINK-30290,2023-141U,2026-06-15T05:22:10.584768,15.30195709,.0001106,53.1598,190.8942,92.2401,267.8726,0,U,57858,999,15526,.18011E-4,.174E-5,0
STARLINK-30414,2023-141V,2026-06-14T08:54:55.212768,15.30190896,.0001363,53.1591,194.8153,110.7798,249.3349,0,U,57859,999,15513,.47981991E-4,.1062E-4,0
STARLINK-30272,2023-141W,2026-06-14T19:19:13.556064,15.31700448,.00011876,53.1593,192.5454,85.5301,274.5836,0,U,57860,999,15520,.26756129E-4,.465E-5,0
STARLINK-30432,2023-144A,2026-06-15T01:54:10.140192,15.27582460,.0001548,43.0082,95.0587,273.4612,86.6063,0,U,57864,999,15249,.32853E-4,.642E-5,0
STARLINK-30427,2023-144B,2026-06-15T01:59:43.467936,15.27578439,.0001275,43.0090,95.0783,272.1791,87.8915,0,U,57865,999,15249,.10571E-4,.29E-6,0
STARLINK-30393,2023-144C,2026-06-15T01:43:04.355616,15.27589354,.0001844,43.0080,94.9943,282.2580,77.8065,0,U,57866,999,15249,.9251E-4,.2285E-4,0
STARLINK-30439,2023-144D,2026-06-15T02:05:16.824192,15.27586465,.0000836,43.0069,95.1113,249.5220,110.5542,0,U,57867,999,15254,.5979E-3,.1623E-3,0
STARLINK-30442,2023-144E,2026-06-15T02:10:46.924896,15.27597346,.0000314,42.9936,95.0969,193.5037,166.5806,0,U,57868,999,15249,.11149E-3,.2809E-4,0
STARLINK-30441,2023-144F,2026-06-15T01:48:36.833184,15.27576878,.0001379,43.0026,94.9778,265.9566,94.1128,0,U,57869,999,15249,.19937E-4,.286E-5,0
STARLINK-30460,2023-144G,2026-06-15T02:14:31.798176,15.27587679,.0001069,43.0024,95.1574,252.7513,107.3221,0,U,57870,999,15254,.79208E-4,.1919E-4,0
STARLINK-30444,2023-144H,2026-06-15T02:25:37.919712,15.27595108,.000018,43.0119,95.2146,237.9981,122.0853,0,U,57871,999,15225,.75148E-3,.20484E-3,0
STARLINK-30446,2023-144J,2026-06-14T11:08:53.533536,15.27582982,.00018377,43.0026,84.5425,275.7731,84.2911,0,U,57872,999,15233,-.22609849E-3,-.6479E-4,0
STARLINK-30445,2023-144K,2026-06-15T02:20:05.856000,15.27569562,.0000952,42.9976,95.1859,281.7130,78.3615,0,U,57873,999,15249,-.30008E-4,-.1087E-4,0
STARLINK-30447,2023-144L,2026-06-14T11:10:41.141280,15.27570773,.00022089,43.0096,72.9165,269.0311,91.0288,0,U,57874,999,15273,.11856619E-4,.64E-6,0
STARLINK-30434,2023-144M,2026-06-15T02:36:43.869312,15.27578743,.0000279,43.0138,95.2723,252.7392,107.3429,0,U,57875,999,15254,-.10674E-4,-.556E-5,0
STARLINK-30429,2023-144N,2026-06-15T02:42:16.775424,15.27581896,.0000311,43.0004,95.2991,280.2035,79.8782,0,U,57876,999,15253,.12534E-3,.3189E-4,0
STARLINK-30284,2023-144P,2026-06-14T10:17:15.065376,15.27576446,.00017227,43.0109,62.2301,260.6185,99.4472,0,U,57877,999,15285,.531666E-6,-.248E-5,0
STARLINK-30433,2023-144Q,2026-06-13T13:26:21.509952,15.27592769,.0003101,43.0118,103.4302,283.3763,76.6743,0,U,57878,999,15230,.93011E-4,.2298E-4,0
STARLINK-30358,2023-144R,2026-06-15T01:37:30.779040,15.27579925,.0001896,43.0087,94.9645,270.4685,89.5949,0,U,57879,999,15253,.28951E-4,.534E-5,0
STARLINK-30436,2023-144S,2026-06-14T02:14:25.151424,15.27580707,.00021581,43.0069,100.5487,276.0788,83.9818,0,U,57880,999,15238,.29919234E-4,.561E-5,0
STARLINK-30339,2023-144U,2026-06-14T12:47:49.522848,15.27572628,.00022994,43.0147,98.6840,273.0598,86.9991,0,U,57882,999,15244,-.6140244E-5,-.432E-5,0
STARLINK-30282,2023-144V,2026-06-13T13:22:38.517600,15.27590815,.0001418,43.0055,103.4101,266.3221,93.7468,0,U,57883,999,15230,.64818E-4,.1522E-4,0
