STARLINK-30425          
1 57850U 23141L   26165.81292470  .00000124  00000+0  16317-4 0  9997
2 57850  53.1594 193.0707 0001117  76.1584 283.9541 15.30193118155197
STARLINK-30405          
1 57851U 23141M   26165.35759190  .00000611  00000+0  31440-4 0  9999
2 57851  53.1601 194.6822 0001159  84.3613 275.7520 15.31703722155131
STARLINK-30431          
1 57852U 23141N   26165.36196182  .00001495  00000+0  62580-4 0  9997
2 57852  53.1593 194.7603 0001190  59.4917 300.6201 15.30206905155128
STARLINK-30404          
1 57853U 23141P   26165.35779939 -.00005175  00000+0 -16297-3 0  9998
2 57853  53.1596 194.7336 0000998  54.8252 305.2842 15.30151120155132
STARLINK-30412          
1 57854U 23141Q   26165.36831129  .00002537  00000+0  97808-4 0  9995
2 57854  53.1593 194.7994 0001204  94.1151 265.9988 15.30184822155134
STARLINK-30392          
1 57855U 23141R   26165.36514123 -.00000034  00000+0  10967-4 0  9990
2 57855  53.1600 194.7791 0001303  91.5496 268.5655 15.30197154155134
STARLINK-30291          
1 57856U 23141S   26165.80034938 -.00000837  00000+0 -15215-4 0  9994
2 57856  53.1591 192.5178 0001316  89.1210 270.9942 15.31698339155206
STARLINK-30424          
1 57857U 23141T   26166.17308743 -.00001930  00000+0 -53073-4 0  9993
2 57857  53.1591 165.3218 0001278  98.4631 261.6514 15.30182768155617
STARLINK-30290          
1 57858U 23141U   26166.22373362  .00000174  00000+0  18011-4 0  9999
2 57858  53.1598 190.8942 0001106  92.2401 267.8726 15.30195709155262
STARLINK-30414          
1 57859U 23141V   26165.37147237  .00001062  00000+0  47982-4 0  9991
2 57859  53.1591 194.8153 0001363 110.7798 249.3349 15.30190896155138
STARLINK-30272          
1 57860U 23141W   26165.80501801  .00000465  00000+0  26756-4 0  9994
2 57860  53.1593 192.5454 0001187  85.5301 274.5836 15.31700448155204
STARLINK-30432          
1 57864U 23144A   26166.07928403  .00000642  00000+0  32853-4 0  9994
2 57864  43.0082  95.0587 0001548 273.4612  86.6063 15.27582460152496
STARLINK-30427          
1 57865U 23144B   26166.08314199  .00000029  00000+0  10571-4 0  9999
2 57865  43.0090  95.0783 0001275 272.1791  87.8915 15.27578439152495
STARLINK-30393          
1 57866U 23144C   26166.07157819  .00002285  00000+0  92510-4 0  9992
2 57866  43.0080  94.9943 0001844 282.2580  77.8065 15.27589354152494
STARLINK-30439          
1 57867U 23144D   26166.08700028  .00016230  00000+0  59790-3 0  9997
2 57867  43.0069  95.1113 0000836 249.5220 110.5542 15.27586465152542
STARLINK-30442          
1 57868U 23144E   26166.09082089  .00002809  00000+0  11149-3 0  9992
2 57868  42.9936  95.0969 0000314 193.5037 166.5806 15.27597346152495
STARLINK-30441          
1 57869U 23144F   26166.07542631  .00000286  00000+0  19937-4 0  9996
2 57869  43.0026  94.9778 0001379 265.9566  94.1128 15.27576878152497
STARLINK-30460          
1 57870U 23144G   26166.09342359  .00001919  00000+0  79208-4 0  9996
2 57870  43.0024  95.1574 0001069 252.7513 107.3221 15.27587679152544
STARLINK-30444          
1 57871U 23144H   26166.10113333  .00020484  00000+0  75148-3 0  9993
2 57871  43.0119  95.2146 0000180 237.9981 122.0853 15.27595108152252
STARLINK-30446          
1 57872U 23144J   26165.46450849 -.00006479  00000+0 -22610-3 0  9994
2 57872  43.0026  84.5425 0001837 275.7731  84.2911 15.27582982152333
STARLINK-30445          
1 57873U 23144K   26166.09729000 -.00001087  00000+0 -30008-4 0  9994
2 57873  42.9976  95.1859 0000952 281.7130  78.3615 15.27569562152493
STARLINK-30447          
1 57874U 23144L   26165.46575395  .00000064  00000+0  11857-4 0  9994
2 57874  43.0096  72.9165 0002208 269.0311  91.0288 15.27570773152739
STARLINK-30434          
1 57875U 23144M   26166.10884108 -.00000556  00000+0 -10674-4 0  9996
2 57875  43.0138  95.2723 0000279 252.7392 107.3429 15.27578743152541
STARLINK-30429          
1 57876U 23144N   26166.11269416  .00003189  00000+0  12534-3 0  9996
2 57876  43.0004  95.2991 0000311 280.2035  79.8782 15.27581896152535
STARLINK-30284          
1 57877U 23144P   26165.42864659 -.00000248  00000+0  53167-6 0  9994
2 57877  43.0109  62.2301 0001722 260.6185  99.4472 15.27576446152850
STARLINK-30433          
1 57878U 23144Q   26164.55997118  .00002298  00000+0  93011-4 0  9991
2 57878  43.0118 103.4302 0003101 283.3763  76.6743 15.27592769152301
STARLINK-30358          
1 57879U 23144R   26166.06771735  .00000534  00000+0  28951-4 0  9997
2 57879  43.0087  94.9645 0001896 270.4685  89.5949 15.27579925152535
STARLINK-30436          
1 57880U 23144S   26165.09334666  .00000561  00000+0  29919-4 0  9994
2 57880  43.0069 100.5487 0002158 276.0788  83.9818 15.27580707152389
STARLINK-30339          
1 57882U 23144U   26165.53321207 -.00000432  00000+0 -61402-5 0  9995
2 57882  43.0147  98.6840 0002299 273.0598  86.9991 15.27572628152445
STARLINK-30282          
1 57883U 23144V   26164.55739025  .00001522  00000+0  64818-4 0  9990
2 57883  43.0055 103.4101 0001418 266.3221  93.7468 15.27590815152307
